STARLINK-31473          
1 59339U 24057V   26068.31701876 -.00001745  00000+0 -53933-4 0  9997
2 59339  43.0022 189.0471 0001678 284.5895  75.4771 15.27568004109789
TEVEL2-7                
1 63238U 25052AE  26068.66113295  .00019244  00000+0  69668-3 0  9998
2 63238  97.4054 324.3041 0008105 124.6830 235.5175 15.28414096 54803
